IRIDIUM 7 [-]           
1 24793U 97020B   24012.90786538  .00000587  00000+0  19941-3 0  9994
2 24793  86.3944  35.2494 0002380  86.1403 274.0065 14.35035770397113
IRIDIUM 5 [-]           
1 24795U 97020D   24012.93963275  .00004907  00000+0  48520-3 0  9999
2 24795  86.3954 322.2090 0124842 195.5343 164.2038 14.85929919407858
IRIDIUM 4 [-]           
1 24796U 97020E   24013.15398667  .00000598  00000+0  19944-3 0  9992
2 24796  86.3943  32.3703 0002369  91.6613 268.4855 14.35945705397704
IRIDIUM 914 [-]         
1 24836U 97030A   24012.62798038  .00000683  00000+0  21170-3 0  9994
2 24836  86.3916  42.7204 0003713 113.6686 246.4903 14.39777723532055
IRIDIUM 16 [-]          
1 24841U 97030F   24013.13973004  .00000688  00000+0  22266-3 0  9997
2 24841  86.4009  64.0896 0002286  38.3248 321.8112 14.37665170392379
IRIDIUM 911 [-]         
1 24842U 97030G   24012.67986519  .00000832  00000+0  22680-3 0  9992
2 24842  86.4436  63.5401 0015704  42.5136 317.7279 14.46232490399675
IRIDIUM 17 [-]          
1 24870U 97034B   24012.73173147  .00000762  00000+0  25194-3 0  9994
2 24870  86.3952  93.9188 0000501  69.9585 290.1666 14.36760727388688
IRIDIUM 920 [-]         
1 24871U 97034C   24013.14434359  .00000703  00000+0  21496-3 0  9992
2 24871  86.3953  74.1776 0011685  11.1230 349.0225 14.40483863391806
